BLUEWALKER-3            
1 53807U 22111AL  26068.47582065  .00007165  00000+0  20454-3 0  9995
2 53807  53.2289 141.6753 0004933 222.5040 137.5583 15.37143225194868
KUIPER-00214            
1 67778U 26030Q   26068.74506972  .00027783  00000+0  76865-3 0  9999
2 67778  51.8850 218.7034 0000352 289.1658  70.9291 15.36794517  5100
