[{"OBJECT_NAME":"BLUEWALKER-3","OBJECT_ID":"2022-111AL","EPOCH":"2026-03-09T11:25:10.904160","MEAN_MOTION":15.37143225,"ECCENTRICITY":0.00049338,"INCLINATION":53.2289,"RA_OF_ASC_NODE":141.6753,"ARG_OF_PERICENTER":222.504,"MEAN_ANOMALY":137.5583,"EPHEMERIS_TYPE":0,"CLASSIFICATION_TYPE":"U","NORAD_CAT_ID":53807,"ELEMENT_SET_NO":999,"REV_AT_EPOCH":19486,"BSTAR":0.00020453656,"MEAN_MOTION_DOT":7.165e-5,"MEAN_MOTION_DDOT":0},{"OBJECT_NAME":"KUIPER-00214","OBJECT_ID":"2026-030Q","EPOCH":"2026-03-09T17:52:54.023808","MEAN_MOTION":15.36794517,"ECCENTRICITY":3.525e-5,"INCLINATION":51.885,"RA_OF_ASC_NODE":218.7034,"ARG_OF_PERICENTER":289.1658,"MEAN_ANOMALY":70.9291,"EPHEMERIS_TYPE":0,"CLASSIFICATION_TYPE":"U","NORAD_CAT_ID":67778,"ELEMENT_SET_NO":999,"REV_AT_EPOCH":510,"BSTAR":0.00076864759,"MEAN_MOTION_DOT":0.00027783,"MEAN_MOTION_DDOT":0}]
